[
    {
        "Altitude(m)": 710602.5837144743,
        "Argument of Periapsis(deg)": 0.009112096949301655,
        "Eccentricity": 0.0,
        "Inclination(deg)": 45.0,
        "Latitude(deg)": -27.118492496948598,
        "Longitude(deg)": -106.23560255824228,
        "Mean Anomaly(deg)": 320.1356733179847,
        "RAAN(deg)": 24.99139844683344,
        "Satellite Name": "Constellation 1 129",
        "Satellite Number": 129,
        "Semi-Major Axis(m)": 7083131.272910544,
        "Time(s)": 152
    },
    {
        "Altitude(m)": 710588.7281402481,
        "Argument of Periapsis(deg)": 0.009172044955547059,
        "Eccentricity": 0.0,
        "Inclination(deg)": 45.0,
        "Latitude(deg)": -27.081425228848847,
        "Longitude(deg)": -106.1857897689074,
        "Mean Anomaly(deg)": 320.19637445823463,
        "RAAN(deg)": 24.991341857667866,
        "Satellite Name": "Constellation 1 129",
        "Satellite Number": 129,
        "Semi-Major Axis(m)": 7083131.272910544,
        "Time(s)": 153
    },
    {
        "Altitude(m)": 710574.8723666139,
        "Argument of Periapsis(deg)": 0.009231992961792466,
        "Eccentricity": 0.0,
        "Inclination(deg)": 45.0,
        "Latitude(deg)": -27.044337020357755,
        "Longitude(deg)": -106.13601231599107,
        "Mean Anomaly(deg)": 320.2570755984845,
        "RAAN(deg)": 24.9912852685023,
        "Satellite Name": "Constellation 1 129",
        "Satellite Number": 129,
        "Semi-Major Axis(m)": 7083131.272910544,
        "Time(s)": 154
    },
    {
        "Altitude(m)": 710561.0164413367,
        "Argument of Periapsis(deg)": 0.009291940968037872,
        "Eccentricity": 0.0,
        "Inclination(deg)": 45.0,
        "Latitude(deg)": -27.007227917646382,
        "Longitude(deg)": -106.08627013955925,
        "Mean Anomaly(deg)": 320.31777673873444,
        "RAAN(deg)": 24.99122867933673,
        "Satellite Name": "Constellation 1 129",
        "Satellite Number": 129,
        "Semi-Major Axis(m)": 7083131.272910544,
        "Time(s)": 155
    },
    {
        "Altitude(m)": 710547.1604121644,
        "Argument of Periapsis(deg)": 0.009351888974283276,
        "Eccentricity": 0.0,
        "Inclination(deg)": 45.0,
        "Latitude(deg)": -26.970097966819033,
        "Longitude(deg)": -106.03656334776122,
        "Mean Anomaly(deg)": 320.3784778789843,
        "RAAN(deg)": 24.991172090171162,
        "Satellite Name": "Constellation 1 129",
        "Satellite Number": 129,
        "Semi-Major Axis(m)": 7083131.272910544,
        "Time(s)": 156
    },
    {
        "Altitude(m)": 710533.3043268325,
        "Argument of Periapsis(deg)": 0.00941183698052868,
        "Eccentricity": 0.0,
        "Inclination(deg)": 45.0,
        "Latitude(deg)": -26.93294721391349,
        "Longitude(deg)": -105.98689154444101,
        "Mean Anomaly(deg)": 320.4391790192342,
        "RAAN(deg)": 24.99111550100559,
        "Satellite Name": "Constellation 1 129",
        "Satellite Number": 129,
        "Semi-Major Axis(m)": 7083131.272910544,
        "Time(s)": 157
    },
    {
        "Altitude(m)": 710519.4482330676,
        "Argument of Periapsis(deg)": 0.009471784986774088,
        "Eccentricity": 0.0,
        "Inclination(deg)": 45.0,
        "Latitude(deg)": -26.895775704900505,
        "Longitude(deg)": -105.93725483772087,
        "Mean Anomaly(deg)": 320.4998801594841,
        "RAAN(deg)": 24.991058911840017,
        "Satellite Name": "Constellation 1 129",
        "Satellite Number": 129,
        "Semi-Major Axis(m)": 7083131.272910544,
        "Time(s)": 158
    },
    {
        "Altitude(m)": 710505.5921785894,
        "Argument of Periapsis(deg)": 0.009531732993019492,
        "Eccentricity": 0.0,
        "Inclination(deg)": 45.0,
        "Latitude(deg)": -26.858583485684377,
        "Longitude(deg)": -105.8876531676131,
        "Mean Anomaly(deg)": 320.560581299734,
        "RAAN(deg)": 24.99100232267445,
        "Satellite Name": "Constellation 1 129",
        "Satellite Number": 129,
        "Semi-Major Axis(m)": 7083131.272910544,
        "Time(s)": 159
    },
    {
        "Altitude(m)": 710491.7362110928,
        "Argument of Periapsis(deg)": 0.009591680999264898,
        "Eccentricity": 0.0,
        "Inclination(deg)": 45.0,
        "Latitude(deg)": -26.821370602102824,
        "Longitude(deg)": -105.83808647411755,
        "Mean Anomaly(deg)": 320.62128243998393,
        "RAAN(deg)": 24.99094573350888,
        "Satellite Name": "Constellation 1 129",
        "Satellite Number": 129,
        "Semi-Major Axis(m)": 7083131.272910544,
        "Time(s)": 160
    },
    {
        "Altitude(m)": 710477.8803782712,
        "Argument of Periapsis(deg)": 0.009651629005510304,
        "Eccentricity": 0.0,
        "Inclination(deg)": 45.0,
        "Latitude(deg)": -26.78413709992739,
        "Longitude(deg)": -105.78855469722237,
        "Mean Anomaly(deg)": 320.6819835802338,
        "RAAN(deg)": 24.990889144343313,
        "Satellite Name": "Constellation 1 129",
        "Satellite Number": 129,
        "Semi-Major Axis(m)": 7083131.272910544,
        "Time(s)": 161
    },
    {
        "Altitude(m)": 710464.0247278034,
        "Argument of Periapsis(deg)": 0.00971157701175571,
        "Eccentricity": 0.0,
        "Inclination(deg)": 45.0,
        "Latitude(deg)": -26.74688302486289,
        "Longitude(deg)": -105.73905777690365,
        "Mean Anomaly(deg)": 320.74268472048374,
        "RAAN(deg)": 24.990832555177743,
        "Satellite Name": "Constellation 1 129",
        "Satellite Number": 129,
        "Semi-Major Axis(m)": 7083131.272910544,
        "Time(s)": 162
    },
    {
        "Altitude(m)": 710450.1693073525,
        "Argument of Periapsis(deg)": 0.009771525018001118,
        "Eccentricity": 0.0,
        "Inclination(deg)": 45.0,
        "Latitude(deg)": -26.7096084225481,
        "Longitude(deg)": -105.68959582122388,
        "Mean Anomaly(deg)": 320.80338586073356,
        "RAAN(deg)": 24.990775966012173,
        "Satellite Name": "Constellation 1 129",
        "Satellite Number": 129,
        "Semi-Major Axis(m)": 7083131.272910544,
        "Time(s)": 163
    },
    {
        "Altitude(m)": 710436.3141645767,
        "Argument of Periapsis(deg)": 0.00983147302424652,
        "Eccentricity": 0.0,
        "Inclination(deg)": 45.0,
        "Latitude(deg)": -26.672313338555856,
        "Longitude(deg)": -105.64016843394312,
        "Mean Anomaly(deg)": 320.8640870009835,
        "RAAN(deg)": 24.990719376846602,
        "Satellite Name": "Constellation 1 129",
        "Satellite Number": 129,
        "Semi-Major Axis(m)": 7083131.272910544,
        "Time(s)": 164
    },
    {
        "Altitude(m)": 710422.4593471148,
        "Argument of Periapsis(deg)": 0.009891421030491928,
        "Eccentricity": 0.0,
        "Inclination(deg)": 45.0,
        "Latitude(deg)": -26.634997818392463,
        "Longitude(deg)": -105.59077572310238,
        "Mean Anomaly(deg)": 320.9247881412334,
        "RAAN(deg)": 24.990662787681035,
        "Satellite Name": "Constellation 1 129",
        "Satellite Number": 129,
        "Semi-Major Axis(m)": 7083131.272910544,
        "Time(s)": 165
    },
    {
        "Altitude(m)": 710408.6049025927,
        "Argument of Periapsis(deg)": 0.009951369036737332,
        "Eccentricity": 0.0,
        "Inclination(deg)": 45.0,
        "Latitude(deg)": -26.597661907498427,
        "Longitude(deg)": -105.54141762863573,
        "Mean Anomaly(deg)": 320.9854892814833,
        "RAAN(deg)": 24.990606198515465,
        "Satellite Name": "Constellation 1 129",
        "Satellite Number": 129,
        "Semi-Major Axis(m)": 7083131.272910544,
        "Time(s)": 166
    },
    {
        "Altitude(m)": 710394.7508786224,
        "Argument of Periapsis(deg)": 0.010011317042982738,
        "Eccentricity": 0.0,
        "Inclination(deg)": 45.0,
        "Latitude(deg)": -26.560305651248445,
        "Longitude(deg)": -105.49209409046767,
        "Mean Anomaly(deg)": 321.0461904217332,
        "RAAN(deg)": 24.990549609349898,
        "Satellite Name": "Constellation 1 129",
        "Satellite Number": 129,
        "Semi-Major Axis(m)": 7083131.272910544,
        "Time(s)": 167
    },
    {
        "Altitude(m)": 710380.8973228075,
        "Argument of Periapsis(deg)": 0.010071265049228144,
        "Eccentricity": 0.0,
        "Inclination(deg)": 45.0,
        "Latitude(deg)": -26.522929094951195,
        "Longitude(deg)": -105.44280504851336,
        "Mean Anomaly(deg)": 321.1068915619831,
        "RAAN(deg)": 24.990493020184324,
        "Satellite Name": "Constellation 1 129",
        "Satellite Number": 129,
        "Semi-Major Axis(m)": 7083131.272910544,
        "Time(s)": 168
    },
    {
        "Altitude(m)": 710367.0442827359,
        "Argument of Periapsis(deg)": 0.01013121305547355,
        "Eccentricity": 0.0,
        "Inclination(deg)": 45.0,
        "Latitude(deg)": -26.485532283849704,
        "Longitude(deg)": -105.39355044267916,
        "Mean Anomaly(deg)": 321.167592702233,
        "RAAN(deg)": 24.990436431018754,
        "Satellite Name": "Constellation 1 129",
        "Satellite Number": 129,
        "Semi-Major Axis(m)": 7083131.272910544,
        "Time(s)": 169
    },
    {
        "Altitude(m)": 710353.1918059748,
        "Argument of Periapsis(deg)": 0.010191161061718957,
        "Eccentricity": 0.0,
        "Inclination(deg)": 45.0,
        "Latitude(deg)": -26.44811526312141,
        "Longitude(deg)": -105.3443302128631,
        "Mean Anomaly(deg)": 321.2282938424829,
        "RAAN(deg)": 24.990379841853187,
        "Satellite Name": "Constellation 1 129",
        "Satellite Number": 129,
        "Semi-Major Axis(m)": 7083131.272910544,
        "Time(s)": 170
    }
]